STARLINK-31149          
1 58863U 24019L   26068.53362764 -.00004203  00000+0 -14324-3 0  9991
2 58863  42.9972 249.3676 0000631 268.5815  91.4965 15.27591575119065
FLOCK 4G-21             
1 62651U 25009AU  26068.19487675  .00013648  00000+0  49619-3 0  9998
2 62651  97.4032 151.1274 0000465 329.5782  30.5431 15.28381075 63677
